[{"OBJECT_NAME":"FALCONSAT-6","OBJECT_ID":"2018-099BK","EPOCH":"2026-03-09T17:24:38.352096","MEAN_MOTION":15.26532865,"ECCENTRICITY":0.00143698,"INCLINATION":97.3865,"RA_OF_ASC_NODE":145.8165,"ARG_OF_PERICENTER":297.0944,"MEAN_ANOMALY":181.0714,"EPHEMERIS_TYPE":0,"CLASSIFICATION_TYPE":"U","NORAD_CAT_ID":43815,"ELEMENT_SET_NO":999,"REV_AT_EPOCH":39855,"BSTAR":0.00019476898,"MEAN_MOTION_DOT":5.029e-5,"MEAN_MOTION_DDOT":0},{"OBJECT_NAME":"STARLINK-31851","OBJECT_ID":"2024-097K","EPOCH":"2026-03-09T00:03:16.663680","MEAN_MOTION":15.27574121,"ECCENTRICITY":0.00012883,"INCLINATION":42.9994,"RA_OF_ASC_NODE":278.074,"ARG_OF_PERICENTER":263.3021,"MEAN_ANOMALY":96.7684,"EPHEMERIS_TYPE":0,"CLASSIFICATION_TYPE":"U","NORAD_CAT_ID":59844,"ELEMENT_SET_NO":999,"REV_AT_EPOCH":10181,"BSTAR":-8.01246e-6,"MEAN_MOTION_DOT":-4.82e-6,"MEAN_MOTION_DDOT":0}]
